METEOSAT-7              
1 24932U 97049B   17075.46149977  .00000039  00000-0  00000-0 0  9998
2 24932  10.5476  38.0749 0001333 295.5901  64.4156  1.00269213 71522
NOAA 15                 
1 25338U 98030A   17075.93326007  .00000011  00000-0  23537-4 0  9997
2 25338  98.7852  86.6471 0011642 112.7158 247.5254 14.25781201979592
METEOSAT-8 (MSG-1)      
1 27509U 02040B   17075.80969328  .00000127  00000-0  00000-0 0  9994
2 27509   4.6816  58.6899 0000963 200.6857 248.1916  1.00264265 53365
KALPANA-1 (METSAT 1)    
1 27525U 02043A   17074.47031329 -.00000094  00000-0  00000-0 0  9992
2 27525   6.1945  55.8411 0015048 235.2278 124.7672  1.00274049 53160
INSAT-3A                
1 27714U 03013A   17075.55662259  .00000041  00000-0  00000-0 0  9993
2 27714   0.9601  88.4658 0016148 235.0094 291.9268  0.99799709 50990
NOAA 18                 
1 28654U 05018A   17075.95752488 -.00000009  00000-0  20736-4 0  9999
2 28654  99.1898  95.8853 0013774 334.0183  26.0295 14.12328684609146
METEOSAT-9 (MSG-2)      
1 28912U 05049B   17075.85744832  .00000046  00000-0  00000-0 0  9991
2 28912   2.0237  70.6354 0000873   9.4028  52.5267  1.00275256 41150
HIMAWARI-7 (MTSAT-2)    
1 28937U 06004A   17075.83451071 -.00000260  00000-0  00000-0 0  9997
2 28937   0.0345 106.1201 0003887 256.7876 257.0911  1.00271282 40597
FORMOSAT-3 FM6          
1 29047U 06011A   17075.89642260  .00000048  00000-0  35316-4 0  9991
2 29047  71.9814  15.4967 0051885 309.7516  49.9055 14.28566158571577
FORMOSAT-3 FM1          
1 29048U 06011B   17075.96314067  .00000034  00000-0  29966-4 0  9990
2 29048  71.9662 287.6145 0045772 266.6036 205.9306 14.28504777574076
FORMOSAT-3 FM5          
1 29049U 06011C   17075.58064704 -.00000026  00000-0  59369-5 0  9992
2 29049  72.0185  93.3275 0036906 302.9438  56.8151 14.28549413569806
FORMOSAT-3 FM3          
1 29050U 06011D   17075.90378398  .00000162  00000-0  44897-4 0  9996
2 29050  72.0183 359.7885 0051298 322.5068  37.2510 14.58468410583011
FORMOSAT-3 FM4          
1 29051U 06011E   17075.95377599  .00000045  00000-0  33594-4 0  9996
2 29051  72.0081 356.8040 0068752 181.4850 178.6094 14.28570999572449
FORMOSAT-3 FM2          
1 29052U 06011F   17075.96358129  .00000151  00000-0  75867-4 0  9993
2 29052  72.0334  67.4676 0042473 266.9514  92.6763 14.28663683569941
GOES 13                 
1 29155U 06018A   17074.72576590 -.00000269  00000-0  00000-0 0  9995
2 29155   0.3753 272.7063 0005653 132.4292 314.8875  1.00266382  9509
METOP-A                 
1 29499U 06044A   17075.92971066  .00000004  00000-0  21712-4 0  9998
2 29499  98.6898 137.0445 0002150  94.9613 253.7322 14.21492659539843
FENGYUN 2D              
1 29640U 06053A   17075.89707166 -.00000374  00000-0  10000-3 0  9998
2 29640   4.2832  64.8444 0005340 343.4131 213.1039  1.00276636 37676
FENGYUN 3A              
1 32958U 08026A   17075.88624158  .00000040  00000-0  38260-4 0  9992
2 32958  98.4188 109.1314 0009473 180.8169 179.2992 14.19653689456244
FENGYUN 2E              
1 33463U 08066A   17075.91666688 -.00000220  00000-0  00000-0 0  9994
2 33463   2.0097  66.2985 0003868 213.2191 311.9831  1.00278844 30204
NOAA 19                 
1 33591U 09005A   17075.94891336  .00000091  00000-0  74220-4 0  9997
2 33591  99.0819  41.5189 0014102 167.6224 192.5296 14.12161639417373
GOES 14                 
1 35491U 09033A   17074.80688291 -.00000114  00000-0  00000-0 0  9995
2 35491   0.0790 112.4980 0005611 130.9835 116.4397  1.00272822 28271
METEOR-M 1              
1 35865U 09049A   17075.93824001  .00000010  00000-0  23195-4 0  9991
2 35865  98.4304 101.7092 0003441  69.7987 290.3562 14.22101435388846
GOES 15                 
1 36411U 10008A   17074.89157507  .00000066  00000-0  00000-0 0  9997
2 36411   0.0209 160.5430 0001395 302.4537 256.9973  1.00285587 25799
COMS 1                  
1 36744U 10032A   17075.81430920 -.00000362  00000-0  00000-0 0  9999
2 36744   0.0201 168.5889 0001516 225.0226 202.3294  1.00268950 24768
FENGYUN 3B              
1 37214U 10059A   17075.88841880 -.00000004  00000-0  20492-4 0  9993
2 37214  98.8831  35.0021 0017985  44.0827 316.1779 14.15843708329483
ELEKTRO-L 1 (GOMS 2)    
1 37344U 11001A   17075.85650307 -.00000237  00000-0  00000-0 0  9991
2 37344   2.2505  78.3034 0004782 272.8969 101.8678  1.00231730 22581
SUOMI NPP               
1 37849U 11061A   17075.96248336  .00000016  00000-0  28304-4 0  9999
2 37849  98.7284  15.9627 0001838  72.0612 352.2176 14.19562455279016
FENGYUN 2F              
1 38049U 12002A   17075.52903036 -.00000374  00000-0  00000-0 0  9992
2 38049   1.5268  77.8689 0001925 166.2943 232.7654  1.00271771 19006
METEOSAT-10 (MSG-3)     
1 38552U 12035B   17075.51697519 -.00000025  00000-0  00000-0 0  9995
2 38552   0.7361  48.0834 0000164 270.1867  41.7096  1.00271122 17002
METOP-B                 
1 38771U 12049A   17075.91647296 -.00000006  00000-0  17232-4 0  9992
2 38771  98.6902 137.5785 0001998 119.2967 327.1488 14.21493258233178
FENGYUN 3C              
1 39260U 13052A   17075.86281490  .00000006  00000-0  23367-4 0  9990
2 39260  98.6573 147.6568 0000742  87.9320 272.1932 14.19641971180287
METEOR-M 2              
1 40069U 14037A   17075.89877084 -.00000022  00000-0  10057-4 0  9997
2 40069  98.6668 132.4874 0006667 115.4757 244.7109 14.20640179139451
HIMAWARI-8              
1 40267U 14060A   17075.12628024 -.00000295  00000-0  00000-0 0  9992
2 40267   0.0138 207.1512 0001433 172.2489 340.6053  1.00267843  8870
FENGYUN 2G              
1 40367U 14090A   17075.96388045 -.00000347  00000-0  00000-0 0  9992
2 40367   0.6245 262.9687 0002716 311.4929  51.8768  1.00277102  8153
METEOSAT-11 (MSG-4)     
1 40732U 15034A   17075.20736932 -.00000048  00000-0  00000-0 0  9994
2 40732   1.9894 245.9788 0000930  83.3228 275.9849  1.00267652  6155
ELEKTRO-L 2             
1 41105U 15074A   17075.98625213 -.00000114  00000-0  00000-0 0  9991
2 41105   0.0457 304.0516 0001609 105.9665 195.8363  1.00271717  4630
HIMAWARI-9              
1 41836U 16064A   17075.12590813 -.00000294  00000-0  00000-0 0  9994
2 41836   0.0202 172.8103 0001176 201.0018 346.1911  1.00269820  1304
GOES 16                 
1 41866U 16071A   17074.76653474 -.00000202  00000-0  00000-0 0  9996
2 41866   0.0116 242.1485 0002186 137.1574 340.7024  1.00269561  1210
FENGYUN 4A              
1 41882U 16077A   17075.96532993 -.00000319  00000-0  00000-0 0  9994
2 41882   0.2000 271.1848 0002530 231.0979 119.4365  1.00277782  1092
CYGFM05                 
1 41884U 16078A   17075.85126611  .00000409  00000-0  24043-4 0  9997
2 41884  34.9582 237.6364 0016892 243.3065 116.5916 15.13442915 13848
CYGFM04                 
1 41885U 16078B   17075.82910123  .00001109  00000-0  61662-4 0  9990
2 41885  34.9511 237.4103 0014700 242.7212 117.2005 15.13806350 13847
CYGFM02                 
1 41886U 16078C   17075.77225525  .00002204  00000-0  12125-3 0  9996
2 41886  34.9620 237.9527 0014994 241.1035 118.8166 15.13669036 13837
CYGFM01                 
1 41887U 16078D   17075.85595326  .00000849  00000-0  48040-4 0  9994
2 41887  34.9567 237.6550 0017614 243.4411 116.4494 15.13429726 13845
CYGFM08                 
1 41888U 16078E   17075.84654836  .00000252  00000-0  15467-4 0  9991
2 41888  34.9538 237.5581 0016705 244.1593 115.7397 15.13538334 13835
CYGFM06                 
1 41889U 16078F   17075.82069231  .00000418  00000-0  24245-4 0  9997
2 41889  34.9606 237.3952 0014543 241.1877 118.7374 15.13940636 13832
CYGFM07                 
1 41890U 16078G   17075.88173884  .00001146  00000-0  63213-4 0  9992
2 41890  34.9540 236.9074 0014319 241.8868 118.0397 15.14057082 13843
CYGFM03                 
1 41891U 16078H   17075.87738922  .00000362  00000-0  21152-4 0  9997
2 41891  34.9578 236.8935 0013914 242.1863 117.7437 15.14083590 13854
